[
    {
        "OBJECT_NAME": "CZ-2C R/B",
        "OBJECT_ID": "2022-132E",
        "EPOCH": "2026-06-06T18:27:54.177984",
        "MEAN_MOTION": 15.70302046,
        "ECCENTRICITY": 0.00170194,
        "INCLINATION": 97.2912,
        "RA_OF_ASC_NODE": 164.3376,
        "ARG_OF_PERICENTER": 116.3837,
        "MEAN_ANOMALY": 243.9175,
        "EPHEMERIS_TYPE": 0,
        "CLASSIFICATION_TYPE": "U",
        "NORAD_CAT_ID": 54039,
        "ELEMENT_SET_NO": 999,
        "REV_AT_EPOCH": 20431,
        "BSTAR": 0.00050981816,
        "MEAN_MOTION_DOT": 0.0006268,
        "MEAN_MOTION_DDOT": 0
    },
    {
        "OBJECT_NAME": "GSLV R/B",
        "OBJECT_ID": "2022-138AN",
        "EPOCH": "2026-06-06T16:35:43.923840",
        "MEAN_MOTION": 14.97211532,
        "ECCENTRICITY": 0.00211235,
        "INCLINATION": 87.3804,
        "RA_OF_ASC_NODE": 136.5095,
        "ARG_OF_PERICENTER": 180.5244,
        "MEAN_ANOMALY": 179.5969,
        "EPHEMERIS_TYPE": 0,
        "CLASSIFICATION_TYPE": "U",
        "NORAD_CAT_ID": 54149,
        "ELEMENT_SET_NO": 999,
        "REV_AT_EPOCH": 19724,
        "BSTAR": 0.00028370665,
        "MEAN_MOTION_DOT": 3.323e-05,
        "MEAN_MOTION_DDOT": 0
    },
    {
        "OBJECT_NAME": "XRISM",
        "OBJECT_ID": "2023-137A",
        "EPOCH": "2026-06-06T23:04:04.617984",
        "MEAN_MOTION": 15.12376045,
        "ECCENTRICITY": 0.00077979,
        "INCLINATION": 31.0024,
        "RA_OF_ASC_NODE": 65.8375,
        "ARG_OF_PERICENTER": 222.8626,
        "MEAN_ANOMALY": 137.1405,
        "EPHEMERIS_TYPE": 0,
        "CLASSIFICATION_TYPE": "U",
        "NORAD_CAT_ID": 57800,
        "ELEMENT_SET_NO": 999,
        "REV_AT_EPOCH": 15131,
        "BSTAR": 0.00029210186,
        "MEAN_MOTION_DOT": 5.296e-05,
        "MEAN_MOTION_DDOT": 0
    },
    {
        "OBJECT_NAME": "ACS3",
        "OBJECT_ID": "2024-077B",
        "EPOCH": "2026-06-06T15:40:45.371424",
        "MEAN_MOTION": 13.93754077,
        "ECCENTRICITY": 0.0047293,
        "INCLINATION": 97.1698,
        "RA_OF_ASC_NODE": 78.7933,
        "ARG_OF_PERICENTER": 67.613,
        "MEAN_ANOMALY": 293.0038,
        "EPHEMERIS_TYPE": 0,
        "CLASSIFICATION_TYPE": "U",
        "NORAD_CAT_ID": 59588,
        "ELEMENT_SET_NO": 999,
        "REV_AT_EPOCH": 10657,
        "BSTAR": 0.037418983,
        "MEAN_MOTION_DOT": 0.00050007,
        "MEAN_MOTION_DDOT": 0
    },
    {
        "OBJECT_NAME": "CZ-8A R/B",
        "OBJECT_ID": "2025-231K",
        "EPOCH": "2026-06-06T01:57:51.897024",
        "MEAN_MOTION": 14.3015185,
        "ECCENTRICITY": 0.0116476,
        "INCLINATION": 50.0038,
        "RA_OF_ASC_NODE": 86.5627,
        "ARG_OF_PERICENTER": 184.9058,
        "MEAN_ANOMALY": 175.0725,
        "EPHEMERIS_TYPE": 0,
        "CLASSIFICATION_TYPE": "U",
        "NORAD_CAT_ID": 66004,
        "ELEMENT_SET_NO": 999,
        "REV_AT_EPOCH": 3335,
        "BSTAR": 4.1733907e-05,
        "MEAN_MOTION_DOT": -4.7e-07,
        "MEAN_MOTION_DDOT": 0
    },
    {
        "OBJECT_NAME": "SZ-21 MODULE",
        "OBJECT_ID": "2025-246C",
        "EPOCH": "2026-06-06T07:35:07.958112",
        "MEAN_MOTION": 15.75457395,
        "ECCENTRICITY": 0.00071848,
        "INCLINATION": 41.4728,
        "RA_OF_ASC_NODE": 14.9847,
        "ARG_OF_PERICENTER": 283.9983,
        "MEAN_ANOMALY": 76.0062,
        "EPHEMERIS_TYPE": 0,
        "CLASSIFICATION_TYPE": "U",
        "NORAD_CAT_ID": 66515,
        "ELEMENT_SET_NO": 999,
        "REV_AT_EPOCH": 3202,
        "BSTAR": 0.00036001641,
        "MEAN_MOTION_DOT": 0.00056445,
        "MEAN_MOTION_DDOT": 0
    }
]