CZ-2C R/B               
1 54039U 22132E   26157.76937706  .00062680  00000+0  50982-3 0  9995
2 54039  97.2912 164.3376 0017019 116.3837 243.9175 15.70302046204319
GSLV R/B                
1 54149U 22138AN  26157.69148060  .00003323  00000+0  28371-3 0  9998
2 54149  87.3804 136.5095 0021123 180.5244 179.5969 14.97211532197241
XRISM                   
1 57800U 23137A   26157.96116456  .00005296  00000+0  29210-3 0  9993
2 57800  31.0024  65.8375 0007797 222.8626 137.1405 15.12376045151310
ACS3                    
1 59588U 24077B   26157.65330291  .00050007  00000+0  37419-1 0  9991
2 59588  97.1698  78.7933 0047293  67.6130 293.0038 13.93754077106572
CZ-8A R/B               
1 66004U 25231K   26157.08185066 -.00000047  00000+0  41734-4 0  9998
2 66004  50.0038  86.5627 0116476 184.9058 175.0725 14.30151850 33357
SZ-21 MODULE            
1 66515U 25246C   26157.31606433  .00056445  00000+0  36002-3 0  9996
2 66515  41.4728  14.9847 0007184 283.9983  76.0062 15.75457395 32025
